1 37400U 99025EFS 18205.29239122 +.00000026 +00000-0 +50700-4 0  9999
2 37400 098.8620 238.0451 0410454 327.3112 030.3220 13.60448308434760
1 37401U 99025EFT 18205.33395232 +.00000197 +00000-0 +82559-4 0  9996
2 37401 098.7131 238.2691 0178805 242.2242 116.0712 14.28768575468856
1 37402U 99025EFU 18204.28016286 +.00001790 +00000-0 +44684-3 0  9995
2 37402 099.3636 234.8664 0029439 071.4059 289.0327 14.52790818248730
1 37403U 99025EFV 18205.02019723 +.00005260 +00000-0 +59556-3 0  9998
2 37403 098.9224 121.2249 0036533 043.5264 316.8821 14.86457214502219
1 37404U 99025EFW 18203.57944097 +.00000400 +00000-0 +19158-3 0  9993
2 37404 098.6510 242.8963 0050006 140.0058 013.3000 14.23745713442602
1 37405U 99025EFX 18205.01006675 +.00000992 +00000-0 +23447-3 0  9998
2 37405 098.5975 274.5895 0086837 328.8695 030.7373 14.54304661302762
1 37406U 99025EFY 18199.96779116 +.00000115 +00000-0 +10108-3 0  9999
2 37406 098.4344 246.3657 0162696 288.4269 193.2307 13.96311528254371
1 37408U 99025EGA 18203.87025446 +.00003377 +00000-0 +85973-3 0  9992
2 37408 098.5537 170.2431 0066515 114.7120 276.4925 14.49991139429930
1 37409U 99025EGB 17316.22690948  .00001540  00000-0  87200-3 0  9996
2 37409  97.7846 118.7296 0124567  94.7494 266.7916 14.07372206513291
1 37410U 99025EGC 18201.34667402  .00000480  00000-0  39513-3 0  9990
2 37410  98.0989  39.8834 0139027  58.0685 303.3910 13.88676404535783
1 37411U 99025EGD 18176.05592118  .00000051  00000-0  48358-4 0  9993
2 37411  97.8048 252.2565 0278130  38.1988 323.8529 13.91545540487883
1 37412U 99025EGE 18205.05202450 +.00001270 +00000-0 +51664-3 0  9991
2 37412 098.9523 307.7808 0018884 341.0096 019.0379 14.29277608236882
1 37413U 99025EGF 18204.00947953 +.00001692 +00000-0 +58213-3 0  9995
2 37413 098.6505 130.1756 0079557 350.9235 009.0507 14.35559910484779
1 37414U 99025EGG 18156.83307988  .00001097  00000-0  63747-3 0  9998
2 37414  98.0414  10.4830 0207586 344.2275  15.2490 14.00208117525601
1 37415U 99025EGH 18200.75840018  .00000026  00000-0  79125-4 0  9995
2 37415  98.9077 180.4350 0287248 236.1441 121.2058 13.50313455544412
1 37416U 99025EGJ 18201.41454170 +.00001324 +00000-0 +52467-3 0  9991
2 37416 099.2346 055.8221 0045968 233.6954 125.9977 14.30168062219691
1 37417U 99025EGK 18205.30210680 +.00000308 +00000-0 +21307-3 0  9990
2 37417 098.9008 236.9317 0080374 270.6200 088.5759 14.04807241304435
1 37418U 99025EGL 18153.41724235  .00000318  00000-0  91497-3 0  9999
2 37418  98.6175 216.8221 1077417 322.7009  30.3709 11.90204679378428
1 37419U 99025EGM 18011.00269686  .00002345  00000-0  12278-2 0  9993
2 37419  98.6158 288.0225 0494469  43.3141 320.5789 13.66546418358062
1 37420U 99025EGN 18200.89248448 +.00000392 +00000-0 +30407-3 0  9990
2 37420 098.9941 241.3372 0074149 183.6796 176.3830 13.97143338220010
1 37421U 99025EGP 18205.46704230 +.00000053 +00000-0 +10183-3 0  9998
2 37421 098.9004 093.4428 0413802 015.0660 346.2375 13.38587520248304
1 37422U 99025EGQ 18185.97721334  .00000649  00000-0  34261-3 0  9990
2 37422  98.9422 239.0677 0039196 308.2553  51.5097 14.17038089488718
1 37423U 99025EGR 18204.39620891 +.00000389 +00000-0 +28043-3 0  9997
2 37423 099.0332 272.0131 0053283 123.0687 237.5611 14.01967753451728
1 37424U 99025EGS 18203.98598312 +.00000164 +00000-0 +88266-4 0  9999
2 37424 097.2120 108.8955 0239523 345.2590 014.1682 14.08346198470985
1 37425U 99025EGT 18175.10250382  .00000457  00000-0  41399-3 0  9994
2 37425  97.1739 281.8016 0169445 312.1556 170.6946 13.80877202473530
1 37426U 99025EGU 16061.14323924 +.00003714 +00000-0 +98617-3 0  9998
2 37426 096.6369 033.5424 0078370 167.6581 203.8538 14.47218032071888
1 37427U 99025EGV 18204.51709608 +.00000176 +00000-0 +23311-4 0  9997
2 37427 098.5885 109.9777 0263654 243.4905 113.9047 14.73401646204187
1 37428U 99025EGW 18205.30020438 +.00000730 +00000-0 +39569-3 0  9990
2 37428 097.7294 008.9026 0079099 148.6429 211.9498 14.13266507251677
1 37429U 99025EGX 18203.37261541 +.00000104 +00000-0 +84804-4 0  9996
2 37429 098.8464 259.7120 0108080 057.9059 303.2547 14.05903657251141
1 37430U 99025EGY 18205.31953928 +.00000515 +00000-0 +29145-3 0  9993
2 37430 098.9800 243.2142 0022484 220.9660 138.9824 14.14531486234478
1 37432U 99025EHA 18204.31847860 +.00000384 +00000-0 +10595-3 0  9994
2 37432 098.4543 249.4984 0222378 177.3973 182.8430 14.39002549258283
1 37433U 99025EHB 18181.18139999 +.00001501 +00000-0 +10710-2 0  9991
2 37433 098.1228 330.9237 0271789 239.4181 117.9909 13.82461284567116
1 37434U 99025EHC 18205.08821021 +.00001016 +00000-0 +26278-3 0  9990
2 37434 099.1353 149.1611 0062177 243.2815 116.2004 14.51283389554220
1 37435U 99025EHD 18205.35862498 +.00000383 +00000-0 +22727-3 0  9995
2 37435 098.8794 250.3226 0047269 158.3863 201.9318 14.12886988507631
1 37436U 99025EHE 18205.26201065 +.00000425 +00000-0 +30148-3 0  9996
2 37436 099.2441 219.3806 0063112 065.0475 295.7229 14.02323781518464
1 37437U 99025EHF 18205.37904115 +.00000229 +00000-0 +13430-3 0  9992
2 37437 098.7431 249.5890 0119212 223.9053 192.9852 14.13993102500278
1 37438U 99025EHG 18203.85617254 +.00000263 +00000-0 +17405-3 0  9993
2 37438 099.0238 232.8363 0029442 295.7489 064.0643 14.09994442527733
1 37439U 99025EHH 18204.28816237 +.00000653 +00000-0 +42695-3 0  9996
2 37439 099.2089 223.6669 0070134 075.2064 343.8313 14.04699461232655
1 37440U 99025EHJ 18205.06694885 +.00001241 +00000-0 +50616-3 0  9994
2 37440 098.9801 311.2643 0064401 000.2838 359.8368 14.28172600573683
1 37441U 99025EHK 18199.70667930  .00000426  00000-0  68492-3 0  9994
2 37441  99.1514  15.6561 0523067 344.1666  14.3617 13.09440765467410
1 37442U 99025EHL 18204.03982805 +.00001672 +00000-0 +40330-3 0  9994
2 37442 099.1407 148.4308 0043008 324.1988 035.6325 14.54179272470883
1 37443U 99025EHM 18202.34022484  .00000797  00000-0  50516-3 0  9999
2 37443  98.4280 243.4979 0143234 287.2398  71.3136 14.01712090517096
1 37444U 99025EHN 18204.87937919 +.00000225 +00000-0 +65726-4 0  9994
2 37444 099.0998 087.6241 0293707 336.5255 022.2744 14.32932230465143
1 37445U 99025EHP 18204.88165754 +.00000117 +00000-0 +64926-4 0  9997
2 37445 099.2693 092.3437 0184339 050.5002 311.2311 14.20992783260613
1 37447U 99025EHR 18203.84999108 +.00000307 +00000-0 +19496-3 0  9994
2 37447 099.1041 225.4850 0042026 300.9683 182.3761 14.11005509475707
1 37448U 99025EHS 18205.28524887 +.00000425 +00000-0 +32094-3 0  9993
2 37448 099.5624 238.3799 0338091 334.4922 023.9871 13.75856771556359
1 37449U 99025EHT 18203.31878032  .00000737  00000-0  81046-4 0  9998
2 37449  98.8739 235.4973 0148075 265.5852  92.8429 14.83985904475331
1 37450U 99025EHU 18170.99537879 +.00000373 +00000-0 +29379-3 0  9994
2 37450 097.6946 089.2411 0331629 290.4064 066.1767 13.73624011485712
1 37452U 99025EHW 18204.41712989 +.00001399 +00000-0 +37326-3 0  9998
2 37452 099.0209 071.6347 0048909 323.0530 036.7296 14.49497513518224
1 37453U 99025EHX 18189.62687820  .00001093  00000-0  10319-2 0  9992
2 37453  97.6567 331.0652 0412927 281.9036  73.6098 13.50493725528645
1 37454U 99025EHY 18205.43933756 +.00003923 +00000-0 +43287-3 0  9998
2 37454 098.9737 194.2593 0042464 252.3096 107.3478 14.87547206438456
1 37455U 99025EHZ 18204.31706048 +.00001123 +00000-0 +15607-3 0  9992
2 37455 099.4423 030.9671 0208763 155.5201 205.6087 14.66646278450500
1 37456U 99025EJA 18205.14286325 +.00000804 +00000-0 +14087-3 0  9992
2 37456 098.9348 172.5747 0114478 198.5576 161.1435 14.66922381481115
1 37457U 99025EJB 18205.15521084 +.00000826 +00000-0 +51963-3 0  9996
2 37457 099.1467 184.2918 0080285 062.1388 298.7884 14.05657084220323
1 37460U 99025EJE 18205.41063945 +.00000509 +00000-0 +23574-3 0  9991
2 37460 098.4725 080.9590 0078093 339.1531 020.6469 14.23372937439431
1 37461U 99025EJF 18205.38051742 +.00000262 +00000-0 +54715-3 0  9997
2 37461 099.8526 040.1843 0691292 077.7871 289.9723 12.71610803176753
1 37462U 99025EJG 18197.85541555  .00002992  00000-0  22756-3 0  9998
2 37462  98.8874 210.8656 0166321  32.9143 328.2297 14.92740872519706
1 37463U 99025EJH 18204.27531687 +.00000732 +00000-0 +17819-3 0  9993
2 37463 098.8255 014.1326 0119200 016.9709 343.5419 14.51939908516239
1 37464U 99025EJJ 18198.63363031  .00000653  00000-0  72834-3 0  9992
2 37464 102.7062 129.5887 0495585 188.4621 170.7896 13.33341475505967
1 37465U 99025EJK 18205.22866836 +.00000865 +00000-0 +26347-3 0  9991
2 37465 099.3665 220.9114 0050541 045.9966 314.5371 14.44203322196586
1 37466U 99025EJL 18204.54686836 +.00001171 +00000-0 +30369-3 0  9996
2 37466 099.1089 106.0828 0125979 083.7475 277.8048 14.47265259502903
1 37467U 99025EJM 18198.61150600  .00013099  00000-0  12069-2 0  9990
2 37467  99.4152 338.5552 0017491 199.6534 160.4009 14.94764244465896
1 37468U 99025EJN 17115.07303952 +.00000849 +00000-0 +56877-3 0  9994
2 37468 098.1470 065.1017 0071628 054.5360 302.6292 14.01911759386757
1 37469U 99025EJP 18205.14177196 +.00002132 +00000-0 +31261-3 0  9990
2 37469 098.9498 167.4848 0063972 259.4290 099.9705 14.75477245273382
1 37470U 99025EJQ 18205.38225703 +.00000598 +00000-0 +25600-3 0  9990
2 37470 098.7968 263.2640 0026388 225.1953 134.7083 14.28479041266074
1 37471U 99025EJR 18176.46238312  .00000960  00000-0  12892-3 0  9999
2 37471  98.7150  53.2017 0192857 242.9620 115.1786 14.70176583504537
1 37473U 99025EJT 18205.23890126 +.00001580 +00000-0 +20865-3 0  9994
2 37473 099.1967 125.6160 0343213 064.8356 298.8016 14.48224739460318
1 37474U 99025EJU 18196.07015050  .00000339  00000-0  95628-4 0  9992
2 37474  99.1341 134.3142 0217886 278.2829  79.3705 14.40488996439686
1 37475U 99025EJV 18205.02700941 +.00000293 +00000-0 +14274-3 0  9995
2 37475 098.9135 293.0723 0114284 032.2021 328.6069 14.22182756456309
1 37476U 99025EJW 18205.59821572 +.00000045 +00000-0 +18769-3 0  9990
2 37476 098.9588 330.5848 1094358 025.2792 339.7920 11.84718862354353
1 37477U 99025EJX 18205.57452576 +.00000236 +00000-0 +15007-3 0  9997
2 37477 098.8093 246.3450 0031630 265.6829 094.0729 14.12748414437632
